OBJECT_NAME,OBJECT_ID,EPOCH,MEAN_MOTION,ECCENTRICITY,INCLINATION,RA_OF_ASC_NODE,ARG_OF_PERICENTER,MEAN_ANOMALY,EPHEMERIS_TYPE,CLASSIFICATION_TYPE,NORAD_CAT_ID,ELEMENT_SET_NO,REV_AT_EPOCH,BSTAR,MEAN_MOTION_DOT,MEAN_MOTION_DDOT
STARLINK-35592,2025-237Y,2026-06-11T14:00:01.999872,15.34415445,.00011697,53.1587,323.2404,95.1101,121.3041,0,U,66136,999,587,-.35638803E-3,-.12404E-3,0
STARLINK-35576,2025-237Z,2026-06-11T14:32:29.414400,15.30209677,.00011333,53.1592,323.0958,97.8731,262.2398,0,U,66137,999,3699,.94403315E-3,.27713E-3,0
STARLINK-35623,2025-237AA,2026-06-11T14:11:23.174016,15.30210660,.00008899,53.1602,323.7133,82.0256,278.0845,0,U,66138,999,3698,.10604014E-2,.31189E-3,0
STARLINK-35549,2025-237AB,2026-06-11T14:41:38.106240,15.30135190,.00011216,53.1590,323.1353,92.3085,267.8044,0,U,66139,999,3699,.24850255E-3,.6993E-4,0
STARLINK-35625,2025-237AC,2026-06-11T14:00:01.999872,15.34411565,.00010164,53.1591,323.2622,61.7374,143.1165,0,U,66140,999,587,-.31650358E-3,-.11058E-3,0
STARLINK-35603,2025-237AD,2026-06-11T15:01:41.697120,15.34410807,.00009134,53.1606,323.2221,93.6138,266.4969,0,U,66141,999,3699,.86865521E-3,.29097E-3,0
TJS-20,2025-238A,2026-06-11T12:15:26.639136,1.00273206,.00045952,5.4831,299.5741,159.9131,46.6303,0,U,66142,999,227,0,.4E-6,0
STARLINK-35318,2025-240A,2026-06-11T05:05:51.254592,15.34405240,.00006407,53.1587,347.2523,72.0432,288.0641,0,U,66146,999,3637,.88316475E-3,.29586E-3,0
STARLINK-33948,2025-240B,2026-06-10T19:29:33.954720,15.30212838,.00012581,53.1608,350.4329,85.2262,274.8883,0,U,66147,999,3629,.5041242E-3,.14607E-3,0
STARLINK-35081,2025-240C,2026-06-11T04:59:47.736096,15.34399958,.0001221,53.1593,347.2140,91.9344,268.1798,0,U,66148,999,3632,.67144222E-3,.22377E-3,0
STARLINK-35601,2025-240D,2026-06-11T05:57:32.665536,15.30204579,.00012145,53.1621,348.1784,86.7480,273.3660,0,U,66149,999,3631,.79302777E-3,.23205E-3,0
STARLINK-35605,2025-240E,2026-06-11T06:05:08.721888,15.30200762,.00011979,53.1612,348.2090,65.4339,294.6786,0,U,66150,999,3631,.85178804E-3,.24954E-3,0
STARLINK-35540,2025-240F,2026-06-10T19:21:51.910848,15.34393725,.000123,53.1596,348.9806,97.6435,262.4708,0,U,66151,999,3626,.32846551E-3,.10735E-3,0
STARLINK-35455,2025-240G,2026-06-10T19:27:55.932192,15.34404114,.00012556,53.1602,349.0145,85.4277,274.6869,0,U,66152,999,3626,.6743963E-3,.22481E-3,0
STARLINK-34752,2025-240H,2026-06-10T20:07:20.510976,15.34404040,.00014842,53.1604,349.1810,98.2595,261.8576,0,U,66153,999,3626,.72619691E-3,.24242E-3,0
STARLINK-34625,2025-240J,2026-06-10T19:20:27.038400,15.30207498,.0001083,53.1606,350.3923,83.9793,276.1332,0,U,66154,999,3629,.85926374E-3,.25182E-3,0
STARLINK-35580,2025-240K,2026-06-11T05:54:12.208896,15.34404000,.00012464,53.1615,346.7475,84.6126,275.5019,0,U,66155,999,3633,.74995811E-3,.2505E-3,0
STARLINK-35621,2025-240L,2026-06-11T05:04:31.443456,15.30203580,.00008803,53.1584,348.6615,115.3408,244.7684,0,U,66156,999,3630,.33486323E-3,.9573E-4,0
STARLINK-35594,2025-240M,2026-06-11T05:17:58.511904,15.34400156,.00012351,53.1602,347.2959,90.1105,270.0039,0,U,66157,999,3632,.85705601E-3,.28692E-3,0
STARLINK-35587,2025-240N,2026-06-10T19:17:24.579744,15.30206580,.00012078,53.1603,350.3824,75.1911,284.9223,0,U,66158,999,3624,.37558665E-3,.10783E-3,0
STARLINK-35586,2025-240P,2026-06-11T05:48:16.195968,15.34407919,.00011796,53.1604,347.4278,77.2039,282.9096,0,U,66159,999,3632,.70426572E-3,.23499E-3,0
STARLINK-35636,2025-240Q,2026-06-10T19:41:43.500768,15.30204409,.00011383,53.1599,350.4849,85.2836,274.8295,0,U,66160,999,3624,.71723631E-3,.20946E-3,0
STARLINK-35635,2025-240R,2026-06-10T17:44:52.636704,15.30202763,.00009008,53.1597,350.6910,64.4116,295.6978,0,U,66161,999,3623,.78360891E-3,.22923E-3,0
STARLINK-35633,2025-240S,2026-06-11T05:52:59.047104,15.30208042,.00011935,53.1615,348.1427,94.0951,266.0186,0,U,66162,999,3631,.42709483E-3,.12314E-3,0
STARLINK-35607,2025-240T,2026-06-10T19:24:53.972064,15.34404447,.00013334,53.1610,348.9847,97.6641,262.4513,0,U,66163,999,3626,.5302333E-3,.17583E-3,0
STARLINK-35614,2025-240U,2026-06-11T05:11:54.712608,15.34421257,.00012815,53.1594,347.2637,102.6744,257.4402,0,U,66164,999,3632,.83043834E-3,.27804E-3,0
STARLINK-35575,2025-240V,2026-06-11T05:02:49.191648,15.34413373,.00011634,53.1592,347.2253,113.7759,246.3365,0,U,66165,999,3632,.57230232E-3,.19017E-3,0
STARLINK-35624,2025-240W,2026-06-11T10:50:44.285280,15.34367425,.00009833,53.1606,345.8867,67.5254,292.5853,0,U,66166,999,3636,.55901112E-3,.18538E-3,0
STARLINK-35641,2025-240X,2026-06-11T05:08:52.885536,15.34399063,.00013559,53.1594,347.2445,86.4833,273.6325,0,U,66167,999,3632,.82708368E-3,.2767E-3,0
STARLINK-35578,2025-240Y,2026-06-11T06:00:35.189856,15.30197927,.00013124,53.1613,348.1771,82.1216,277.9934,0,U,66168,999,3631,.34535055E-3,.9882E-4,0
