STARLINK-35592          
1 66136U 25237Y   26162.58335648 -.00012404  00000+0 -35639-3 0  9991
2 66136  53.1587 323.2404 0001169  95.1101 121.3041 15.34415445  5873
STARLINK-35576          
1 66137U 25237Z   26162.60589600  .00027713  00000+0  94403-3 0  9995
2 66137  53.1592 323.0958 0001133  97.8731 262.2398 15.30209677 36992
STARLINK-35623          
1 66138U 25237AA  26162.59124044  .00031189  00000+0  10604-2 0  9993
2 66138  53.1602 323.7133 0000889  82.0256 278.0845 15.30210660 36987
STARLINK-35549          
1 66139U 25237AB  26162.61224660  .00006993  00000+0  24850-3 0  9996
2 66139  53.1590 323.1353 0001121  92.3085 267.8044 15.30135190 36998
STARLINK-35625          
1 66140U 25237AC  26162.58335648 -.00011058  00000+0 -31650-3 0  9999
2 66140  53.1591 323.2622 0001016  61.7374 143.1165 15.34411565  5875
STARLINK-35603          
1 66141U 25237AD  26162.62617705  .00029097  00000+0  86866-3 0  9991
2 66141  53.1606 323.2221 0000913  93.6138 266.4969 15.34410807 36991
TJS-20                  
1 66142U 25238A   26162.51072499  .00000040  00000+0  00000+0 0  9995
2 66142   5.4831 299.5741 0004595 159.9131  46.6303  1.00273206  2275
STARLINK-35318          
1 66146U 25240A   26162.21239878  .00029586  00000+0  88316-3 0  9991
2 66146  53.1587 347.2523 0000640  72.0432 288.0641 15.34405240 36374
STARLINK-33948          
1 66147U 25240B   26161.81219855  .00014607  00000+0  50412-3 0  9994
2 66147  53.1608 350.4329 0001258  85.2262 274.8883 15.30212838 36299
STARLINK-35081          
1 66148U 25240C   26162.20819139  .00022377  00000+0  67144-3 0  9993
2 66148  53.1593 347.2140 0001221  91.9344 268.1798 15.34399958 36321
STARLINK-35601          
1 66149U 25240D   26162.24829474  .00023205  00000+0  79303-3 0  9992
2 66149  53.1621 348.1784 0001214  86.7480 273.3660 15.30204579 36318
STARLINK-35605          
1 66150U 25240E   26162.25357317  .00024954  00000+0  85179-3 0  9997
2 66150  53.1612 348.2090 0001197  65.4339 294.6786 15.30200762 36313
STARLINK-35540          
1 66151U 25240F   26161.80685082  .00010735  00000+0  32847-3 0  9997
2 66151  53.1596 348.9806 0001230  97.6435 262.4708 15.34393725 36266
STARLINK-35455          
1 66152U 25240G   26161.81106403  .00022481  00000+0  67440-3 0  9992
2 66152  53.1602 349.0145 0001255  85.4277 274.6869 15.34404114 36267
STARLINK-34752          
1 66153U 25240H   26161.83843184  .00024242  00000+0  72620-3 0  9992
2 66153  53.1604 349.1810 0001484  98.2595 261.8576 15.34404040 36260
STARLINK-34625          
1 66154U 25240J   26161.80586850  .00025182  00000+0  85926-3 0  9991
2 66154  53.1606 350.3923 0001083  83.9793 276.1332 15.30207498 36294
STARLINK-35580          
1 66155U 25240K   26162.24597464  .00025050  00000+0  74996-3 0  9993
2 66155  53.1615 346.7475 0001246  84.6126 275.5019 15.34404000 36337
STARLINK-35621          
1 66156U 25240L   26162.21147504  .00009573  00000+0  33486-3 0  9998
2 66156  53.1584 348.6615 0000880 115.3408 244.7684 15.30203580 36307
STARLINK-35594          
1 66157U 25240M   26162.22081611  .00028692  00000+0  85706-3 0  9991
2 66157  53.1602 347.2959 0001235  90.1105 270.0039 15.34400156 36324
STARLINK-35587          
1 66158U 25240N   26161.80375671  .00010783  00000+0  37559-3 0  9992
2 66158  53.1603 350.3824 0001207  75.1911 284.9223 15.30206580 36240
STARLINK-35586          
1 66159U 25240P   26162.24185412  .00023499  00000+0  70427-3 0  9993
2 66159  53.1604 347.4278 0001179  77.2039 282.9096 15.34407919 36322
STARLINK-35636          
1 66160U 25240Q   26161.82064237  .00020946  00000+0  71724-3 0  9994
2 66160  53.1599 350.4849 0001138  85.2836 274.8295 15.30204409 36241
STARLINK-35635          
1 66161U 25240R   26161.73949811  .00022923  00000+0  78361-3 0  9996
2 66161  53.1597 350.6910 0000900  64.4116 295.6978 15.30202763 36236
STARLINK-35633          
1 66162U 25240S   26162.24512786  .00012314  00000+0  42709-3 0  9991
2 66162  53.1615 348.1427 0001193  94.0951 266.0186 15.30208042 36312
STARLINK-35607          
1 66163U 25240T   26161.80895801  .00017583  00000+0  53023-3 0  9999
2 66163  53.1610 348.9847 0001333  97.6641 262.4513 15.34404447 36262
STARLINK-35614          
1 66164U 25240U   26162.21660547  .00027804  00000+0  83044-3 0  9996
2 66164  53.1594 347.2637 0001281 102.6744 257.4402 15.34421257 36322
STARLINK-35575          
1 66165U 25240V   26162.21029157  .00019017  00000+0  57230-3 0  9998
2 66165  53.1592 347.2253 0001163 113.7759 246.3365 15.34413373 36328
STARLINK-35624          
1 66166U 25240W   26162.45190145  .00018538  00000+0  55901-3 0  9991
2 66166  53.1606 345.8867 0000983  67.5254 292.5853 15.34367425 36360
STARLINK-35641          
1 66167U 25240X   26162.21450099  .00027670  00000+0  82708-3 0  9995
2 66167  53.1594 347.2445 0001355  86.4833 273.6325 15.34399063 36325
STARLINK-35578          
1 66168U 25240Y   26162.25040729  .00009882  00000+0  34535-3 0  9995
2 66168  53.1613 348.1771 0001312  82.1216 277.9934 15.30197927 36314
